start=new Date('2022-01-18T00:00:00.000Z').valueOf();
sats=[{"COUNTRY_CODE":"US","OBJECT_NAME":"STARLINK-1589","REF_FRAME":"TEME","MEAN_ANOMALY":"281.6237","RCS_SIZE":"LARGE","CLASSIFICATION_TYPE":"U","APOAPSIS":"548.798","TLE_LINE2":"2 46158  53.0544 223.4203 0002237  78.5003 281.6237 15.06388664 80026","GP_ID":"194086107","PERIOD":"95.593","INCLINATION":"53.0544","ELEMENT_SET_NO":"999","SITE":"AFETR","MEAN_MOTION_DDOT":"0.0000000000000","MEAN_MOTION_DOT":"-0.00002389","LAUNCH_DATE":"2020-08-18","EPHEMERIS_TYPE":"0","MEAN_ELEMENT_THEORY":"SGP4","OBJECT_ID":"2020-057AT","TLE_LINE1":"1 46158U 20057AT  22017.87549023 -.00002389  00000-0 -14155-3 0  9991","REV_AT_EPOCH":"8002","SEMIMAJOR_AXIS":"6925.383","OBJECT_TYPE":"PAYLOAD","BSTAR":"-0.00014155000000","PERIAPSIS":"545.699","DECAY_DATE":null,"EPOCH":"2022-01-17T21:00:42.355872","NORAD_CAT_ID":"46158","MEAN_MOTION":"15.06388664","FILE":"3276075","TIME_SYSTEM":"UTC","RA_OF_ASC_NODE":"223.4203","ARG_OF_PERICENTER":"78.5003","CENTER_NAME":"EARTH","ECCENTRICITY":"0.00022370"},{"ECCENTRICITY":"0.00019010","RA_OF_ASC_NODE":"263.2415","ARG_OF_PERICENTER":"70.6898","CENTER_NAME":"EARTH","TIME_SYSTEM":"UTC","FILE":"3276075","MEAN_MOTION":"15.06385918","EPOCH":"2022-01-17T21:59:04.058016","NORAD_CAT_ID":"46159","DECAY_DATE":null,"PERIAPSIS":"545.940","BSTAR":"-0.00025669000000","SEMIMAJOR_AXIS":"6925.392","OBJECT_TYPE":"PAYLOAD","TLE_LINE1":"1 46159U 20057AU  22017.91601919 -.00004102  00000-0 -25669-3 0  9997","REV_AT_EPOCH":"7946","EPHEMERIS_TYPE":"0","LAUNCH_DATE":"2020-08-18","MEAN_ELEMENT_THEORY":"SGP4","OBJECT_ID":"2020-057AU","MEAN_MOTION_DDOT":"0.0000000000000","MEAN_MOTION_DOT":"-0.00004102","SITE":"AFETR","PERIOD":"95.593","ELEMENT_SET_NO":"999","INCLINATION":"53.0532","TLE_LINE2":"2 46159  53.0532 263.2415 0001901  70.6898 289.4297 15.06385918 79460","GP_ID":"194086357","APOAPSIS":"548.573","RCS_SIZE":"LARGE","MEAN_ANOMALY":"289.4297","CLASSIFICATION_TYPE":"U","REF_FRAME":"TEME","OBJECT_NAME":"STARLINK-1595","COUNTRY_CODE":"US"},{"ARG_OF_PERICENTER":"64.9899","RA_OF_ASC_NODE":"243.2724","CENTER_NAME":"EARTH","ECCENTRICITY":"0.00024280","MEAN_MOTION":"15.06389947","FILE":"3276075","TIME_SYSTEM":"UTC","DECAY_DATE":null,"NORAD_CAT_ID":"46160","EPOCH":"2022-01-17T21:45:48.587040","SEMIMAJOR_AXIS":"6925.379","OBJECT_TYPE":"PAYLOAD","BSTAR":"-0.00010158000000","PERIAPSIS":"545.563","MEAN_MOTION_DDOT":"0.0000000000000","MEAN_MOTION_DOT":"-0.00001794","LAUNCH_DATE":"2020-08-18","MEAN_ELEMENT_THEORY":"SGP4","EPHEMERIS_TYPE":"0","OBJECT_ID":"2020-057AV","REV_AT_EPOCH":"7973","TLE_LINE1":"1 46160U 20057AV  22017.90681235 -.00001794  00000-0 -10158-3 0  9998","TLE_LINE2":"2 46160  53.0539 243.2724 0002428  64.9899 295.1342 15.06389947 79733","GP_ID":"194087107","PERIOD":"95.593","ELEMENT_SET_NO":"999","INCLINATION":"53.0539","SITE":"AFETR","REF_FRAME":"TEME","RCS_SIZE":"LARGE","MEAN_ANOMALY":"295.1342","CLASSIFICATION_TYPE":"U","APOAPSIS":"548.926","COUNTRY_CODE":"US","OBJECT_NAME":"STARLINK-1598"},{"DECAY_DATE":null,"EPOCH":"2022-01-17T21:13:58.716768","NORAD_CAT_ID":"46161","OBJECT_TYPE":"PAYLOAD","SEMIMAJOR_AXIS":"6925.351","BSTAR":"-0.00017455000000","PERIAPSIS":"545.673","CENTER_NAME":"EARTH","ARG_OF_PERICENTER":"75.2695","RA_OF_ASC_NODE":"243.3708","ECCENTRICITY":"0.00022280","MEAN_MOTION":"15.06399331","FILE":"3276075","TIME_SYSTEM":"UTC","REF_FRAME":"TEME","CLASSIFICATION_TYPE":"U","RCS_SIZE":"LARGE","MEAN_ANOMALY":"284.8541","APOAPSIS":"548.759","COUNTRY_CODE":"US","OBJECT_NAME":"STARLINK-1600","MEAN_MOTION_DOT":"-0.00002881","MEAN_MOTION_DDOT":"0.0000000000000","OBJECT_ID":"2020-057AW","EPHEMERIS_TYPE":"0","LAUNCH_DATE":"2020-08-18","MEAN_ELEMENT_THEORY":"SGP4","REV_AT_EPOCH":"7973","TLE_LINE1":"1 46161U 20057AW  22017.88470737 -.00002881  00000-0 -17455-3 0  9994","GP_ID":"194085357","TLE_LINE2":"2 46161  53.0529 243.3708 0002228  75.2695 284.8541 15.06399331 79737","INCLINATION":"53.0529","PERIOD":"95.592","ELEMENT_SET_NO":"999","SITE":"AFETR"},{"MEAN_MOTION":"15.06382678","FILE":"3276075","TIME_SYSTEM":"UTC","ARG_OF_PERICENTER":"72.7736","RA_OF_ASC_NODE":"243.3507","CENTER_NAME":"EARTH","ECCENTRICITY":"0.00023140","SEMIMAJOR_AXIS":"6925.402","OBJECT_TYPE":"PAYLOAD","BSTAR":"-0.00009815300000","PERIAPSIS":"545.664","DECAY_DATE":null,"NORAD_CAT_ID":"46162","EPOCH":"2022-01-17T21:19:16.677408","TLE_LINE2":"2 46162  53.0537 243.3507 0002314  72.7736 287.3506 15.06382678 79744","GP_ID":"194085607","PERIOD":"95.593","ELEMENT_SET_NO":"999","INCLINATION":"53.0537","SITE":"AFETR","MEAN_MOTION_DDOT":"0.0000000000000","MEAN_MOTION_DOT":"-0.00001743","LAUNCH_DATE":"2020-08-18","EPHEMERIS_TYPE":"0","MEAN_ELEMENT_THEORY":"SGP4","OBJECT_ID":"2020-057AX","REV_AT_EPOCH":"7974","TLE_LINE1":"1 46162U 20057AX  22017.88838747 -.00001743  00000-0 -98153-4 0  9995","COUNTRY_CODE":"US","OBJECT_NAME":"STARLINK-1603","REF_FRAME":"TEME","MEAN_ANOMALY":"287.3506","RCS_SIZE":"LARGE","CLASSIFICATION_TYPE":"U","APOAPSIS":"548.869"},{"DECAY_DATE":null,"NORAD_CAT_ID":"46163","EPOCH":"2022-01-17T21:16:37.534656","OBJECT_TYPE":"PAYLOAD","SEMIMAJOR_AXIS":"6925.378","BSTAR":"-0.00011819000000","PERIAPSIS":"545.716","CENTER_NAME":"EARTH","ARG_OF_PERICENTER":"71.2190","RA_OF_ASC_NODE":"223.3734","ECCENTRICITY":"0.00022050","MEAN_MOTION":"15.06390238","FILE":"3276075","TIME_SYSTEM":"UTC","REF_FRAME":"TEME","CLASSIFICATION_TYPE":"U","MEAN_ANOMALY":"288.9038","RCS_SIZE":"LARGE","APOAPSIS":"548.771","COUNTRY_CODE":"US","OBJECT_NAME":"STARLINK-1610","MEAN_MOTION_DOT":"-0.00002041","MEAN_MOTION_DDOT":"0.0000000000000","OBJECT_ID":"2020-057AY","LAUNCH_DATE":"2020-08-18","MEAN_ELEMENT_THEORY":"SGP4","EPHEMERIS_TYPE":"0","TLE_LINE1":"1 46163U 20057AY  22017.88654554 -.00002041  00000-0 -11819-3 0  9993","REV_AT_EPOCH":"7876","GP_ID":"194086858","TLE_LINE2":"2 46163  53.0521 223.3734 0002205  71.2190 288.9038 15.06390238 78764","PERIOD":"95.593","ELEMENT_SET_NO":"999","INCLINATION":"53.0521","SITE":"AFETR"},{"FILE":"3276075","MEAN_MOTION":"15.06389752","TIME_SYSTEM":"UTC","ECCENTRICITY":"0.00025340","RA_OF_ASC_NODE":"223.3857","ARG_OF_PERICENTER":"72.4388","CENTER_NAME":"EARTH","BSTAR":"-0.00014102000000","SEMIMAJOR_AXIS":"6925.380","OBJECT_TYPE":"PAYLOAD","PERIAPSIS":"545.490","DECAY_DATE":null,"EPOCH":"2022-01-17T21:11:19.430592","NORAD_CAT_ID":"46164","TLE_LINE2":"2 46164  53.0529 223.3857 0002534  72.4388 287.6877 15.06389752 80024","GP_ID":"194086607","SITE":"AFETR","PERIOD":"95.593","ELEMENT_SET_NO":"999","INCLINATION":"53.0529","LAUNCH_DATE":"2020-08-18","EPHEMERIS_TYPE":"0","MEAN_ELEMENT_THEORY":"SGP4","OBJECT_ID":"2020-057AZ","MEAN_MOTION_DDOT":"0.0000000000000","MEAN_MOTION_DOT":"-0.00002381","TLE_LINE1":"1 46164U 20057AZ  22017.88286378 -.00002381  00000-0 -14102-3 0  9994","REV_AT_EPOCH":"8002","COUNTRY_CODE":"US","OBJECT_NAME":"STARLINK-1612","RCS_SIZE":"LARGE","MEAN_ANOMALY":"287.6877","CLASSIFICATION_TYPE":"U","REF_FRAME":"TEME","APOAPSIS":"549.000"},{"MEAN_MOTION_DOT":"0.00010152","MEAN_MOTION_DDOT":"0.0000000000000","OBJECT_ID":"2020-057BA","LAUNCH_DATE":"2020-08-18","EPHEMERIS_TYPE":"0","MEAN_ELEMENT_THEORY":"SGP4","TLE_LINE1":"1 46165U 20057BA  22017.94694733  .00010152  00000-0  68299-3 0  9999","REV_AT_EPOCH":"7821","GP_ID":"194085858","TLE_LINE2":"2 46165  53.0518 262.9520 0002851  95.2446 264.8868 15.07287764 78215","ELEMENT_SET_NO":"999","PERIOD":"95.536","INCLINATION":"53.0518","SITE":"AFETR","REF_FRAME":"TEME","CLASSIFICATION_TYPE":"U","RCS_SIZE":"LARGE","MEAN_ANOMALY":"264.8868","APOAPSIS":"546.468","COUNTRY_CODE":"US","OBJECT_NAME":"STARLINK-1613","CENTER_NAME":"EARTH","RA_OF_ASC_NODE":"262.9520","ARG_OF_PERICENTER":"95.2446","ECCENTRICITY":"0.00028510","MEAN_MOTION":"15.07287764","FILE":"3276075","TIME_SYSTEM":"UTC","DECAY_DATE":null,"EPOCH":"2022-01-17T22:43:36.249312","NORAD_CAT_ID":"46165","OBJECT_TYPE":"PAYLOAD","SEMIMAJOR_AXIS":"6922.629","BSTAR":"0.00068299000000","PERIAPSIS":"542.520"},{"ECCENTRICITY":"0.00018680","CENTER_NAME":"EARTH","ARG_OF_PERICENTER":"65.0309","RA_OF_ASC_NODE":"263.1469","TIME_SYSTEM":"UTC","FILE":"3276075","MEAN_MOTION":"15.06392271","NORAD_CAT_ID":"46166","EPOCH":"2022-01-17T22:25:36.813504","DECAY_DATE":null,"PERIAPSIS":"545.944","BSTAR":"-0.00015801000000","OBJECT_TYPE":"PAYLOAD","SEMIMAJOR_AXIS":"6925.372","TLE_LINE1":"1 46166U 20057BB  22017.93445386 -.00002634  00000-0 -15801-3 0  9996","REV_AT_EPOCH":"7821","OBJECT_ID":"2020-057BB","EPHEMERIS_TYPE":"0","LAUNCH_DATE":"2020-08-18","MEAN_ELEMENT_THEORY":"SGP4","MEAN_MOTION_DOT":"-0.00002634","MEAN_MOTION_DDOT":"0.0000000000000","SITE":"AFETR","PERIOD":"95.593","ELEMENT_SET_NO":"999","INCLINATION":"53.0544","GP_ID":"194086108","TLE_LINE2":"2 46166  53.0544 263.1469 0001868  65.0309 295.0874 15.06392271 78212","APOAPSIS":"548.531","CLASSIFICATION_TYPE":"U","MEAN_ANOMALY":"295.0874","RCS_SIZE":"LARGE","REF_FRAME":"TEME","OBJECT_NAME":"STARLINK-1615","COUNTRY_CODE":"US"},{"NORAD_CAT_ID":"46167","EPOCH":"2022-01-17T22:46:50.701152","DECAY_DATE":null,"PERIAPSIS":"545.853","BSTAR":"-0.00016754000000","SEMIMAJOR_AXIS":"6925.374","OBJECT_TYPE":"PAYLOAD","ECCENTRICITY":"0.00020010","ARG_OF_PERICENTER":"63.1089","RA_OF_ASC_NODE":"263.0962","CENTER_NAME":"EARTH","TIME_SYSTEM":"UTC","FILE":"3276075","MEAN_MOTION":"15.06391618","APOAPSIS":"548.625","RCS_SIZE":"LARGE","MEAN_ANOMALY":"297.0104","CLASSIFICATION_TYPE":"U","REF_FRAME":"TEME","OBJECT_NAME":"STARLINK-1626","COUNTRY_CODE":"US","REV_AT_EPOCH":"7821","TLE_LINE1":"1 46167U 20057BC  22017.94919793 -.00002776  00000-0 -16754-3 0  9991","LAUNCH_DATE":"2020-08-18","EPHEMERIS_TYPE":"0","MEAN_ELEMENT_THEORY":"SGP4","OBJECT_ID":"2020-057BC","MEAN_MOTION_DDOT":"0.0000000000000","MEAN_MOTION_DOT":"-0.00002776","SITE":"AFETR","ELEMENT_SET_NO":"999","PERIOD":"95.593","INCLINATION":"53.0549","TLE_LINE2":"2 46167  53.0549 263.0962 0002001  63.1089 297.0104 15.06391618 78211","GP_ID":"194086358"}];
